[{"OBJECT_NAME":"OBJECT H","OBJECT_ID":"2025-055H","EPOCH":"2026-03-09T23:29:50.051328","MEAN_MOTION":15.30330066,"ECCENTRICITY":0.00075967,"INCLINATION":97.636,"RA_OF_ASC_NODE":211.9572,"ARG_OF_PERICENTER":140.4354,"MEAN_ANOMALY":219.7441,"EPHEMERIS_TYPE":0,"CLASSIFICATION_TYPE":"U","NORAD_CAT_ID":63298,"ELEMENT_SET_NO":999,"REV_AT_EPOCH":5423,"BSTAR":0.0015582864,"MEAN_MOTION_DOT":0.00045901,"MEAN_MOTION_DDOT":0},{"OBJECT_NAME":"STARLINK-34603","OBJECT_ID":"2025-176Y","EPOCH":"2026-03-09T12:27:41.741568","MEAN_MOTION":15.30187827,"ECCENTRICITY":0.00013435,"INCLINATION":53.1574,"RA_OF_ASC_NODE":153.5708,"ARG_OF_PERICENTER":71.6489,"MEAN_ANOMALY":288.4657,"EPHEMERIS_TYPE":0,"CLASSIFICATION_TYPE":"U","NORAD_CAT_ID":65220,"ELEMENT_SET_NO":999,"REV_AT_EPOCH":3309,"BSTAR":0.00092131687,"MEAN_MOTION_DOT":0.00027017,"MEAN_MOTION_DDOT":0}]
